{"type": "FeatureCollection", "features": [ {"type": "Feature", "properties": {"norad_id": 31040, "name": "FENGYUN 1C DEB", "group": "fengyun-1c-debris", "lat": 74.64104192003052, "lon": -178.00828067161697, "alt_km": 845.5358226658045, "timestamp": "2025-12-04T05:42:43.653144+00:00", "meta": {"OBJECT_NAME": "FENGYUN 1C DEB", "OBJECT_ID": "1999-025BEJ", "EPOCH": "2025-12-03T11:18:34.850016", "MEAN_MOTION": 14.17652499, "ECCENTRICITY": 0.00618276, "INCLINATION": 98.6576, "RA_OF_ASC_NODE": 327.5548, "ARG_OF_PERICENTER": 220.9797, "MEAN_ANOMALY": 291.3269, "EPHEMERIS_TYPE": 0, "CLASSIFICATION_TYPE": "U", "NORAD_CAT_ID": 31040, "ELEMENT_SET_NO": 999, "REV_AT_EPOCH": 96575, "BSTAR": 0.00045578726, "MEAN_MOTION_DOT": 9.02e-06, "MEAN_MOTION_DDOT": 0}, "tle": {"line1": "1 31040U 99025BEJ 25337.47123669  .00000902  00000+0  45579-3 0  9994", "line2": "2 31040  98.6576 327.5548 0061827 220.9797 291.3269 14.17652499965757"}}, "geometry": {"type": "Point", "coordinates": [-178.00828067161697, 74.64104192003052]}}, {"type": "Feature", "properties": {"norad_id": 31041, "name": "FENGYUN 1C DEB", "group": "fengyun-1c-debris", "lat": -22.68487731075457, "lon": 10.460323762678604, "alt_km": 776.4518513022222, "timestamp": "2025-12-04T05:42:43.653154+00:00", "meta": {"OBJECT_NAME": "FENGYUN 1C DEB", "OBJECT_ID": "1999-025BEK", "EPOCH": "2025-12-03T21:20:58.441920", "MEAN_MOTION": 14.17711562, "ECCENTRICITY": 0.00866702, "INCLINATION": 99.2055, "RA_OF_ASC_NODE": 6.2126, "ARG_OF_PERICENTER": 345.7803, "MEAN_ANOMALY": 14.0932, "EPHEMERIS_TYPE": 0, "CLASSIFICATION_TYPE": "U", "NORAD_CAT_ID": 31041, "ELEMENT_SET_NO": 999, "REV_AT_EPOCH": 95364, "BSTAR": 0.0041161766, "MEAN_MOTION_DOT": 8.662e-05, "MEAN_MOTION_DDOT": 0}, "tle": {"line1": "1 31041U 99025BEK 25337.88956530  .00008662  00000+0  41162-2 0  9995", "line2": "2 31041  99.2055   6.2126 0086670 345.7803  14.0932 14.17711562953646"}}, "geometry": {"type": "Point", "coordinates": [10.460323762678604, -22.68487731075457]}}, {"type": "Feature", "properties": {"norad_id": 31043, "name": "FENGYUN 1C DEB", "group": "fengyun-1c-debris", "lat": -81.03335965327588, "lon": 74.1948552671247, "alt_km": 885.466336343372, "timestamp": "2025-12-04T05:42:43.653164+00:00", "meta": {"OBJECT_NAME": "FENGYUN 1C DEB", "OBJECT_ID": "1999-025BEM", "EPOCH": "2025-12-02T12:14:08.314944", "MEAN_MOTION": 14.08402875, "ECCENTRICITY": 0.00418241, "INCLINATION": 98.7653, "RA_OF_ASC_NODE": 354.6104, "ARG_OF_PERICENTER": 33.0221, "MEAN_ANOMALY": 121.8076, "EPHEMERIS_TYPE": 0, "CLASSIFICATION_TYPE": "U", "NORAD_CAT_ID": 31043, "ELEMENT_SET_NO": 999, "REV_AT_EPOCH": 95843, "BSTAR": 0.00066949294, "MEAN_MOTION_DOT": 1.113e-05, "MEAN_MOTION_DDOT": 0}, "tle": {"line1": "1 31043U 99025BEM 25336.50981846  .00001113  00000+0  66949-3 0  9998", "line2": "2 31043  98.7653 354.6104 0041824  33.0221 121.8076 14.08402875958437"}}, "geometry": {"type": "Point", "coordinates": [74.1948552671247, -81.03335965327588]}}, {"type": "Feature", "properties": {"norad_id": 31046, "name": "FENGYUN 1C DEB", "group": "fengyun-1c-debris", "lat": -27.051589979137624, "lon": -87.44178528219794, "alt_km": 681.1053298237302, "timestamp": "2025-12-04T05:42:43.653174+00:00", "meta": {"OBJECT_NAME": "FENGYUN 1C DEB", "OBJECT_ID": "1999-025BEQ", "EPOCH": "2025-12-03T07:41:14.250048", "MEAN_MOTION": 14.63065598, "ECCENTRICITY": 0.0048478, "INCLINATION": 98.9685, "RA_OF_ASC_NODE": 96.1871, "ARG_OF_PERICENTER": 132.8649, "MEAN_ANOMALY": 283.0408, "EPHEMERIS_TYPE": 0, "CLASSIFICATION_TYPE": "U", "NORAD_CAT_ID": 31046, "ELEMENT_SET_NO": 999, "REV_AT_EPOCH": 96505, "BSTAR": 0.0064646, "MEAN_MOTION_DOT": 0.00033855, "MEAN_MOTION_DDOT": 0}, "tle": {"line1": "1 31046U 99025BEQ 25337.32030382  .00033855  00000+0  64646-2 0  9991", "line2": "2 31046  98.9685  96.1871 0048478 132.8649 283.0408 14.63065598965054"}}, "geometry": {"type": "Point", "coordinates": [-87.44178528219794, -27.051589979137624]}}, {"type": "Feature", "properties": {"norad_id": 31047, "name": "FENGYUN 1C DEB", "group": "fengyun-1c-debris", "lat": 75.13296173553776, "lon": -59.325170318016625, "alt_km": 849.431597763818, "timestamp": "2025-12-04T05:42:43.653184+00:00", "meta": {"OBJECT_NAME": "FENGYUN 1C DEB", "OBJECT_ID": "1999-025BER", "EPOCH": "2025-11-30T06:16:53.018400", "MEAN_MOTION": 14.13811848, "ECCENTRICITY": 0.00250553, "INCLINATION": 98.6999, "RA_OF_ASC_NODE": 332.031, "ARG_OF_PERICENTER": 213.9152, "MEAN_ANOMALY": 157.3733, "EPHEMERIS_TYPE": 0, "CLASSIFICATION_TYPE": "U", "NORAD_CAT_ID": 31047, "ELEMENT_SET_NO": 999, "REV_AT_EPOCH": 96183, "BSTAR": 0.00043698289, "MEAN_MOTION_DOT": 7.87e-06, "MEAN_MOTION_DDOT": 0}, "tle": {"line1": "1 31047U 99025BER 25334.26172475  .00000787  00000+0  43698-3 0  9995", "line2": "2 31047  98.6999 332.0310 0025055 213.9152 157.3733 14.13811848961834"}}, "geometry": {"type": "Point", "coordinates": [-59.325170318016625, 75.13296173553776]}}, {"type": "Feature", "properties": {"norad_id": 31051, "name": "FENGYUN 1C DEB", "group": "fengyun-1c-debris", "lat": 29.706333877152396, "lon": -165.85951920254206, "alt_km": 843.8597149970456, "timestamp": "2025-12-04T05:42:43.653194+00:00", "meta": {"OBJECT_NAME": "FENGYUN 1C DEB", "OBJECT_ID": "1999-025BEV", "EPOCH": "2025-11-29T08:36:57.509280", "MEAN_MOTION": 14.03023318, "ECCENTRICITY": 0.00528722, "INCLINATION": 98.8207, "RA_OF_ASC_NODE": 4.3303, "ARG_OF_PERICENTER": 172.6282, "MEAN_ANOMALY": 187.5674, "EPHEMERIS_TYPE": 0, "CLASSIFICATION_TYPE": "U", "NORAD_CAT_ID": 31051, "ELEMENT_SET_NO": 999, "REV_AT_EPOCH": 63631, "BSTAR": 0.00023865273, "MEAN_MOTION_DOT": 3.33e-06, "MEAN_MOTION_DDOT": 0}, "tle": {"line1": "1 31051U 99025BEV 25333.35899895  .00000333  00000+0  23865-3 0  9992", "line2": "2 31051  98.8207   4.3303 0052872 172.6282 187.5674 14.03023318636313"}}, "geometry": {"type": "Point", "coordinates": [-165.85951920254206, 29.706333877152396]}}, {"type": "Feature", "properties": {"norad_id": 31053, "name": "FENGYUN 1C DEB", "group": "fengyun-1c-debris", "lat": 44.10453762916399, "lon": -69.988392653676, "alt_km": 757.0807364012853, "timestamp": "2025-12-04T05:42:43.653205+00:00", "meta": {"OBJECT_NAME": "FENGYUN 1C DEB", "OBJECT_ID": "1999-025BEX", "EPOCH": "2025-12-03T13:22:09.208992", "MEAN_MOTION": 13.75799689, "ECCENTRICITY": 0.03096045, "INCLINATION": 98.7944, "RA_OF_ASC_NODE": 100.7528, "ARG_OF_PERICENTER": 119.501, "MEAN_ANOMALY": 243.7399, "EPHEMERIS_TYPE": 0, "CLASSIFICATION_TYPE": "U", "NORAD_CAT_ID": 31053, "ELEMENT_SET_NO": 999, "REV_AT_EPOCH": 93350, "BSTAR": 0.003066599, "MEAN_MOTION_DOT": 4.178e-05, "MEAN_MOTION_DDOT": 0}, "tle": {"line1": "1 31053U 99025BEX 25337.55705103  .00004178  00000+0  30666-2 0  9995", "line2": "2 31053  98.7944 100.7528 0309604 119.5010 243.7399 13.75799689933508"}}, "geometry": {"type": "Point", "coordinates": [-69.988392653676, 44.10453762916399]}}, {"type": "Feature", "properties": {"norad_id": 31054, "name": "FENGYUN 1C DEB", "group": "fengyun-1c-debris", "lat": -64.64532016009855, "lon": 152.6987300686051, "alt_km": 860.900874604904, "timestamp": "2025-12-04T05:42:43.653215+00:00", "meta": {"OBJECT_NAME": "FENGYUN 1C DEB", "OBJECT_ID": "1999-025BEY", "EPOCH": "2025-12-03T19:12:09.872064", "MEAN_MOTION": 14.1216148, "ECCENTRICITY": 0.00104061, "INCLINATION": 98.6907, "RA_OF_ASC_NODE": 351.1051, "ARG_OF_PERICENTER": 143.9107, "MEAN_ANOMALY": 37.1149, "EPHEMERIS_TYPE": 0, "CLASSIFICATION_TYPE": "U", "NORAD_CAT_ID": 31054, "ELEMENT_SET_NO": 999, "REV_AT_EPOCH": 96637, "BSTAR": 0.00024826457, "MEAN_MOTION_DOT": 4.13e-06, "MEAN_MOTION_DDOT": 0}, "tle": {"line1": "1 31054U 99025BEY 25337.80011426  .00000413  00000+0  24826-3 0  9992", "line2": "2 31054  98.6907 351.1051 0010406 143.9107  37.1149 14.12161480966370"}}, "geometry": {"type": "Point", "coordinates": [152.6987300686051, -64.64532016009855]}}, {"type": "Feature", "properties": {"norad_id": 31055, "name": "FENGYUN 1C DEB", "group": "fengyun-1c-debris", "lat": 62.4814794940832, "lon": -7.549976273281949, "alt_km": 862.3890612040323, "timestamp": "2025-12-04T05:42:43.653225+00:00", "meta": {"OBJECT_NAME": "FENGYUN 1C DEB", "OBJECT_ID": "1999-025BEZ", "EPOCH": "2025-12-03T13:07:36.252768", "MEAN_MOTION": 14.10359273, "ECCENTRICITY": 0.00240093, "INCLINATION": 98.7609, "RA_OF_ASC_NODE": 8.994, "ARG_OF_PERICENTER": 299.0409, "MEAN_ANOMALY": 217.8477, "EPHEMERIS_TYPE": 0, "CLASSIFICATION_TYPE": "U", "NORAD_CAT_ID": 31055, "ELEMENT_SET_NO": 999, "REV_AT_EPOCH": 95992, "BSTAR": 0.00050402979, "MEAN_MOTION_DOT": 8.54e-06, "MEAN_MOTION_DDOT": 0}, "tle": {"line1": "1 31055U 99025BEZ 25337.54694737  .00000854  00000+0  50403-3 0  9995", "line2": "2 31055  98.7609   8.9940 0024009 299.0409 217.8477 14.10359273959928"}}, "geometry": {"type": "Point", "coordinates": [-7.549976273281949, 62.4814794940832]}}, {"type": "Feature", "properties": {"norad_id": 31056, "name": "FENGYUN 1C DEB", "group": "fengyun-1c-debris", "lat": -80.61466105011195, "lon": 73.7074052478958, "alt_km": 855.5534816926211, "timestamp": "2025-12-04T05:42:43.653234+00:00", "meta": {"OBJECT_NAME": "FENGYUN 1C DEB", "OBJECT_ID": "1999-025BFA", "EPOCH": "2025-12-03T10:31:26.895936", "MEAN_MOTION": 14.14283138, "ECCENTRICITY": 0.0026031, "INCLINATION": 98.6671, "RA_OF_ASC_NODE": 320.2748, "ARG_OF_PERICENTER": 9.4767, "MEAN_ANOMALY": 148.9014, "EPHEMERIS_TYPE": 0, "CLASSIFICATION_TYPE": "U", "NORAD_CAT_ID": 31056, "ELEMENT_SET_NO": 999, "REV_AT_EPOCH": 96686, "BSTAR": 0.0005329074, "MEAN_MOTION_DOT": 9.78e-06, "MEAN_MOTION_DDOT": 0}, "tle": {"line1": "1 31056U 99025BFA 25337.43850574  .00000978  00000+0  53291-3 0  9992", "line2": "2 31056  98.6671 320.2748 0026031   9.4767 148.9014 14.14283138966862"}}, "geometry": {"type": "Point", "coordinates": [73.7074052478958, -80.61466105011195]}}]}